     2.100          NAVIGATION                              RINEX VERSION / TYPE
fic2rin                                 10/05/2016 00:05:24 PGM / RUN BY / DATE
                                                            END OF HEADER
29 16 10  5  0  0  0.0  .648805871606D-03 -.136424205266D-11  .000000000000D+00
     .170000000000D+02 -.104375000000D+02  .378230040514D-08 -.179440620205D+01
    -.452622771263D-06  .515870051458D-03  .110361725092D-04  .515374450302D+04
     .259200000000D+06 -.912696123123D-07  .745849243980D+00  .279396772385D-07
     .978770430426D+00  .175843750000D+03  .836212985684D-01 -.762281752095D-08
     .300726812193D-09  .100000000000D+01  .191700000000D+04  .000000000000D+00
     .240000000000D+01  .000000000000D+00 -.102445483208D-07  .170000000000D+02
     .252006000000D+06  .400000000000D+01
31 16 10  5  0  0  0.0  .244292430580D-03 -.216004991671D-11  .000000000000D+00
     .670000000000D+02  .517187500000D+02  .465305096111D-08 -.474134349096D+00
     .266171991825D-05  .836400582921D-02  .364519655704D-05  .515356173706D+04
     .259200000000D+06  .689178705215D-07 -.137135265569D+01 -.160187482834D-06
     .969399241998D+00  .315281250000D+03 -.376522205261D+00 -.840856453618D-08
     .942896418278D-10  .100000000000D+01  .191700000000D+04  .000000000000D+00
     .240000000000D+01  .000000000000D+00 -.135041773319D-07  .670000000000D+02
     .252006000000D+06  .400000000000D+01
32 16 10  5  0  0  0.0 -.141199212521D-03 -.153477230924D-10  .000000000000D+00
     .380000000000D+02  .693125000000D+02  .439946896983D-08  .292112101557D+01
     .357814133167D-05  .632366980426D-03  .106785446405D-04  .515365843964D+04
     .259200000000D+06 -.223517417908D-07 -.245806685775D+01 -.372529029846D-07
     .959262768939D+00  .172093750000D+03 -.236138114921D+01 -.790390065776D-08
    -.289297764699D-10  .100000000000D+01  .191700000000D+04  .000000000000D+00
     .240000000000D+01  .000000000000D+00  .931322574615D-09  .380000000000D+02
     .252006000000D+06  .400000000000D+01
 2 16 10  4 23 59 44.0  .544212292880D-03 -.511590769747D-11  .000000000000D+00
     .200000000000D+01  .234062500000D+02  .522771775543D-08  .801525436672D+00
     .113807618618D-05  .159869121853D-01  .589527189732D-05  .515364303780D+04
     .259184000000D+06 -.238418579102D-06  .169494505118D+01  .670552253723D-07
     .943834719305D+00  .257562500000D+03 -.208066767698D+01 -.869000483072D-08
     .195365280605D-09  .100000000000D+01  .191700000000D+04  .000000000000D+00
     .240000000000D+01  .000000000000D+00 -.204890966415D-07  .200000000000D+01
     .254136000000D+06  .400000000000D+01
 9 16 10  4 23 59 44.0  .218929257244D-03  .727595761418D-11  .000000000000D+00
     .300000000000D+01  .533437500000D+02  .458769109575D-08  .253195552325D+01
     .283867120743D-05  .561148393899D-03  .105500221252D-04  .515377873802D+04
     .259184000000D+06  .242143869400D-07 -.246010608362D+01 -.391155481339D-07
     .954703198535D+00  .171375000000D+03  .192837708716D+01 -.801676250177D-08
     .392873507616D-11  .100000000000D+01  .191700000000D+04  .000000000000D+00
     .240000000000D+01  .000000000000D+00  .139698386192D-08  .300000000000D+01
     .254616000000D+06  .400000000000D+01
